KUIPER-00027            
1 63740U 25088S   25223.58334491  .00030399  00000+0  10750-2 0  9992
2 63740  51.8770 312.4133 0001026 123.6077 213.8352 15.28913780 16388
KUIPER-00028            
1 63741U 25088T   25223.58334491  .00018929  00000+0  61014-3 0  9998
2 63741  51.8743 312.0483 0002954  75.5561  55.6504 15.32196320 16803
KUIPER-00029            
1 63742U 25088U   25223.22429496  .00016245  00000+0  44321-3 0  9991
2 63742  51.8692 314.4020 0004543 117.0220 243.1231 15.37575110 16275
KUIPER-00030            
1 63743U 25088V   25223.58334491 -.00014481  00000+0 -12586-2 0  9990
2 63743  51.8922 320.1117 0013994 102.5831  98.4677 14.95874692 16501
KUIPER-00031            
1 63744U 25088W   25223.58334491 -.01342954  00000+0 -56372-1 0  9991
2 63744  51.8740 312.7850 0003777 108.1465  51.6266 15.26096117 16322
KUIPER-00032            
1 63745U 25088X   25223.28054580  .00014297  00000+0  51199-3 0  9994
2 63745  51.8723 314.7473 0004964  87.7448 272.4104 15.28989973 17271
KUIPER-00033            
1 63746U 25088Y   25223.54110351  .00004853  00000+0  66475-3 0  9993
2 63746  51.9007 335.8691 0002907 187.8054 172.2864 14.79957154 16487
KUIPER-00034            
1 63747U 25088Z   25223.23149013  .00017317  00000+0  46011-3 0  9990
2 63747  51.8724 313.7287 0001445  99.9152 260.1998 15.38351548 16449
